SPACEMOBILE-003         
1 61045U 24163A   26177.81235899  .00001689  00000+0  90246-4 0  9998
2 61045  52.9744 265.1828 0005991 141.0621 219.0806 15.20822722 99230
SPACEMOBILE-005         
1 61046U 24163B   26178.71570257  .00003325  00000+0  16319-3 0  9996
2 61046  52.9811 260.9573 0009077 141.3887 218.7758 15.20852474 99365
SPACEMOBILE-001         
1 61047U 24163C   26178.64868809  .00003055  00000+0  15118-3 0  9998
2 61047  52.9764 260.9890 0008309 139.4653 220.6961 15.20849620 99357
SPACEMOBILE-002         
1 61048U 24163D   26178.96134830  .00008790  00000+0  40692-3 0  9990
2 61048  52.9714 259.5926 0007877 145.6083 214.5423 15.20861819 99407
SPACEMOBILE-004         
1 61049U 24163E   26178.94348412  .00003339  00000+0  16404-3 0  9990
2 61049  52.9684 259.4608 0008753 172.1928 187.9204 15.20811463 99407
SPACEMOBILE-001 DEB     
1 62369U 24163F   26178.86296773  .00008074  00000+0  24423-3 0  9990
2 62369  52.9931 228.9682 0006697 190.3371 169.7493 15.35114740 88147
SPACEMOBILE-002 DEB     
1 62370U 24163G   26178.80364721  .00015847  00000+0  35976-3 0  9996
2 62370  52.9403 214.4998 0004889 219.8144 140.2502 15.43222880100008
SPACEMOBILE-003 DEB     
1 62371U 24163H   26178.81213526  .00015944  00000+0  38974-3 0  9993
2 62371  52.9681 221.0286 0006393 177.0331 183.0711 15.40982188 93522
SPACEMOBILE-004 DEB     
1 62372U 24163J   26178.56290375  .00011416  00000+0  28825-3 0  9997
2 62372  52.9829 221.7439 0003476 193.0839 167.0075 15.40323004 96551
SPACEMOBILE-005 DEB     
1 62373U 24163K   26178.87693602  .00008838  00000+0  27254-3 0  9991
2 62373  52.9741 233.7474 0006772 170.9393 189.1731 15.34371349 99766
SPACEMOBILE-006         
1 67232U 25309A   26178.57338360  .00003458  00000+0  18023-3 0  9994
2 67232  52.9968 284.0584 0011223 158.3008 201.8463 15.18592879 28173
SPACEMOBILE-008         
1 69589U 26139A   26178.57930403  .00000594  00000+0  50434-4 0  9990
2 69589  52.9937 215.3857 0004018  11.6673 348.4410 15.12780568  1550
SPACEMOBILE-009         
1 69590U 26139B   26178.58002351  .00000558  00000+0  48535-4 0  9994
2 69590  52.9928 215.3865 0004200   5.8110 354.2929 15.12674035  1556
SPACEMOBILE-010         
1 69591U 26139C   26178.58116892  .00000538  00000+0  47590-4 0  9999
2 69591  52.9934 215.3958 0004053 355.5161   4.5793 15.12505300  1567
